STARLINK-5902           
1 55998U 23042N   25180.88594401 -.00000399  00000+0 -14432-4 0  9992
2 55998  43.0056 349.6464 0001314 262.5299  97.5394 15.02536874125226
STARLINK-5901           
1 55999U 23042P   25180.82723493  .00000342  00000+0  40394-4 0  9994
2 55999  43.0051 350.0696 0001195 271.2090  88.8615 15.02535685124876
STARLINK-5910           
1 56000U 23042Q   25180.87373595 -.00000333  00000+0 -95926-5 0  9991
2 56000  43.0045 349.5534 0001168 268.3746  91.6963 15.02534216124880
STARLINK-5944           
1 56001U 23042R   25180.74965623  .00000894  00000+0  81250-4 0  9991
2 56001  43.0049 350.3445 0001154 270.5069  89.5641 15.02535428124867
STARLINK-5799           
1 56002U 23042S   25180.74411062  .00000343  00000+0  40478-4 0  9991
2 56002  43.0052 350.3026 0001638 280.6106  79.4552 15.02533895124863
STARLINK-5789           
1 56003U 23042T   25180.88927445 -.00000139  00000+0  47601-5 0  9994
2 56003  43.0057 349.6727 0001319 266.0157  94.0534 15.02534869124885
STARLINK-5787           
1 56004U 23042U   25180.73744874  .00000666  00000+0  64350-4 0  9995
2 56004  43.0051 350.2540 0001287 264.8787  95.1908 15.02532769124862
STARLINK-5801           
1 56005U 23042V   25180.88039465  .00000329  00000+0  39436-4 0  9998
2 56005  43.0055 349.6053 0001294 265.7582  94.3113 15.02532702124887
STARLINK-5794           
1 56006U 23042W   25180.73300196 -.00003412  00000+0 -23762-3 0  9997
2 56006  43.0048 350.2178 0001245 272.9626  87.1074 15.02536693124868
STARLINK-5806           
1 56007U 23042X   25180.73633952  .00000276  00000+0  35525-4 0  9991
2 56007  43.0042 350.2443 0001268 266.6706  93.3992 15.02534765124868
STARLINK-5803           
1 56008U 23042Y   25180.78517568 -.00000409  00000+0 -15199-4 0  9996
2 56008  43.0044 350.5923 0001418 268.8326  91.2354 15.02535014124852
STARLINK-5964           
1 56009U 23042Z   25180.73411806  .00000174  00000+0  27957-4 0  9992
2 56009  43.0052 350.2244 0001294 267.6587  92.4107 15.02535469124867
STARLINK-5968           
1 56010U 23042AA  25180.86263772  .00000112  00000+0  23337-4 0  9995
2 56010  43.0053 349.4704 0001089 262.3750  97.6968 15.02530620125224
STARLINK-5936           
1 56011U 23042AB  25180.86078970 -.00000039  00000+0  12225-4 0  9993
2 56011  43.0052 337.3038 0001343 265.7563  94.3126 15.02534787125365
STARLINK-5940           
1 56012U 23042AC  25180.73337974  .00000832  00000+0  76660-4 0  9995
2 56012  43.0052 338.0738 0001272 271.6374  88.4322 15.02537664125008
STARLINK-5941           
1 56013U 23042AD  25180.46043731 -.00000202  00000+0  13131-6 0  9999
2 56013  43.0058 351.6113 0001273 264.2582  95.8115 15.02537117124827
STARLINK-5942           
1 56014U 23042AE  25180.72672470 -.00000898  00000+0 -51431-4 0  9992
2 56014  43.0050 338.0190 0000859 266.6055  93.4689 15.02529015125003
STARLINK-5939           
1 56015U 23042AF  25180.73006450  .00004802  00000+0  37041-3 0  9990
2 56015  43.0088 338.0483 0001666 266.6911  93.3741 15.02525772125002
STARLINK-5943           
1 56016U 23042AG  25180.77655397 -.00000286  00000+0 -61049-5 0  9996
2 56016  43.0041 337.5299 0001171 265.3444  94.7265 15.02534384125015
STARLINK-5934           
1 56017U 23042AH  25180.78765353 -.00000160  00000+0  32615-5 0  9999
2 56017  43.0053 337.6152 0001383 266.6002  93.4682 15.02533930125012
STARLINK-5945           
1 56018U 23042AJ  25180.71118634 -.00000173  00000+0  22550-5 0  9998
2 56018  43.0041 337.9041 0001299 265.4851  94.5843 15.02532623125003
STARLINK-5949           
1 56019U 23042AK  25180.85742925  .00003527  00000+0  27586-3 0  9997
2 56019  43.0046 337.2819 0001151 275.4775  84.5936 15.02564409125366
STARLINK-5912           
1 56020U 23042AL  25180.71451362  .00000215  00000+0  30967-4 0  9995
2 56020  43.0050 337.9241 0001107 266.0374  94.0341 15.02536463125007
STARLINK-5907           
1 56021U 23042AM  25180.85079692  .00000513  00000+0  53071-4 0  9995
2 56021  43.0044 337.2319 0001217 265.8619  94.2084 15.02538410125023
STARLINK-5783           
1 56022U 23042AN  25180.70119672  .00000078  00000+0  20876-4 0  9996
2 56022  43.0059 337.8251 0001217 268.7588  91.3115 15.02532521125006
STARLINK-5771           
1 56023U 23042AP  25180.83970455 -.00000336  00000+0 -98016-5 0  9996
2 56023  43.0046 337.1455 0001223 271.8454  88.2249 15.02531583125028
STARLINK-5772           
1 56024U 23042AQ  25180.82417610  .00001892  00000+0  15509-3 0  9995
2 56024  43.0055 337.0281 0001429 278.9147  81.1534 15.02533577125024
STARLINK-5766           
1 56025U 23042AR  25180.86744830  .00000508  00000+0  52688-4 0  9990
2 56025  43.0044 337.3472 0001193 273.1591  86.9115 15.02534184125029
STARLINK-5770           
1 56026U 23042AS  25180.70008320  .00000000  00000+0  15103-4 0  9999
2 56026  43.0106 337.8144 0002764 267.8994  92.1532 15.02526601125007
STARLINK-5777           
1 56027U 23042AT  25180.70341537  .00000207  00000+0  30394-4 0  9998
2 56027  43.0054 337.8441 0001259 265.5983  94.4715 15.02535576125000
STARLINK-5779           
1 56028U 23042AU  25180.81972257  .00000010  00000+0  15821-4 0  9990
2 56028  43.0050 336.9904 0001377 255.2067 104.8623 15.02535071125027
STARLINK-5774           
1 56029U 23042AV  25180.82971320  .00000109  00000+0  23158-4 0  9993
2 56029  43.0061 337.0673 0001278 269.4008  90.6688 15.02531372125020
STARLINK-5781           
1 56030U 23042AW  25180.81639310 -.00000238  00000+0 -25282-5 0  9990
2 56030  43.0061 336.9703 0001317 264.8107  95.2585 15.02533517125027
STARLINK-5785           
1 56031U 23042AX  25180.82305073  .00001185  00000+0  10280-3 0  9998
2 56031  43.0046 337.0209 0001331 255.9918 104.0777 15.02524114125026
STARLINK-5786           
1 56032U 23042AY  25180.74103901 -.00000247  00000+0 -31880-5 0  9997
2 56032  43.0060 337.2633 0001278 269.5010  90.5686 15.02526924125018
STARLINK-5782           
1 56034U 23042BA  25180.73992667 -.00000268  00000+0 -47716-5 0  9991
2 56034  43.0051 337.2545 0001305 267.3597  92.7096 15.02532217125010
STARLINK-5792           
1 56035U 23042BB  25180.81416780  .00000463  00000+0  49336-4 0  9992
2 56035  43.0054 336.9520 0001166 265.9075  94.1634 15.02539078125020
STARLINK-5790           
1 56036U 23042BC  25180.74325001  .00000560  00000+0  56485-4 0  9991
2 56036  43.0033 337.2780 0001119 272.2514  87.8200 15.02540142125018
STARLINK-5758           
1 56037U 23042BD  25180.76459515  .00000116  00000+0  23676-4 0  9995
2 56037  43.0051 324.3820 0001366 264.6829  95.3857 15.02531772125166
STARLINK-5793           
1 56038U 23042BE  25180.73770101  .00001505  00000+0  12647-3 0  9998
2 56038  43.0060 337.2369 0001297 275.3801  84.6893 15.02537603125014
STARLINK-5795           
1 56039U 23042BF  25180.76014992  .00000630  00000+0  61672-4 0  9992
2 56039  43.0044 324.3475 0001374 269.4174  90.6511 15.02537458125163
STARLINK-5798           
1 56040U 23042BG  25180.69145869 -.00000495  00000+0 -21589-4 0  9998
2 56040  43.0046 324.6884 0001209 266.2490  93.8214 15.02532141125155
STARLINK-5800           
1 56041U 23042BH  25180.82219440  .00000722  00000+0  68537-4 0  9996
2 56041  43.0047 323.9496 0001362 270.9518  89.1168 15.02527844125511
ONEWEB-0537             
1 56046U 23043A   25180.87269700 -.00000036  00000+0 -12673-3 0  9990
2 56046  87.9064 298.9800 0001877  93.3763 266.7583 13.16593730112602
ONEWEB-0538             
1 56047U 23043B   25180.86635894  .00000011  00000+0 -54599-5 0  9998
2 56047  87.9053 298.9998 0002158  95.6697 264.4680 13.16594144112617
ONEWEB-0546             
1 56048U 23043C   25180.85368641  .00000012  00000+0 -29661-5 0  9994
2 56048  87.9061 298.9771 0001547  80.2832 279.8474 13.16593396112606
ONEWEB-0547             
1 56049U 23043D   25180.88267459 -.00000039  00000+0 -12641-3 0  9991
2 56049  87.9261 314.2465 0002120  97.6262 262.5112 13.21826787111682
ONEWEB-0548             
1 56050U 23043E   25180.87902187 -.00000082  00000+0 -24819-3 0  9994
2 56050  87.9049 299.0065 0001746 115.3481 244.7831 13.16594159112600
ONEWEB-0549             
1 56051U 23043F   25180.87401023  .00000004  00000+0 -21719-4 0  9998
2 56051  87.9273 314.2601 0002250  96.8630 263.2759 13.21826650111688
ONEWEB-0550             
1 56052U 23043G   25180.86139896  .00000055  00000+0  10047-3 0  9990
2 56052  87.9270 314.2568 0001749 102.2645 257.8685 13.21826446111688
ONEWEB-0551             
1 56053U 23043H   25180.93374854  .00000078  00000+0  17213-3 0  9991
2 56053  87.9063 329.4627 0002088  98.2001 261.9366 13.15548682110991
ONEWEB-0552             
1 56054U 23043J   25180.93078852  .00000022  00000+0  22591-4 0  9996
2 56054  87.9268 314.2516 0002147 104.5040 255.6332 13.21824604111697
ONEWEB-0553             
1 56055U 23043K   25180.86002888  .00000029  00000+0  43054-4 0  9999
2 56055  87.9053 298.9991 0001612  94.2960 265.8355 13.16593308112616
ONEWEB-0554             
1 56056U 23043L   25180.84735824  .00000152  00000+0  36298-3 0  9999
2 56056  87.9050 299.0295 0001747 107.7623 252.3698 13.16592617112598
ONEWEB-0555             
1 56057U 23043M   25180.88535399 -.00000058  00000+0 -18505-3 0  9997
2 56057  87.9052 298.9880 0001471  88.4963 271.6337 13.16593975112609
ONEWEB-0557             
1 56058U 23043N   25180.89960043 -.00000034  00000+0 -12223-3 0  9992
2 56058  87.9048 299.0073 0000800 135.1191 225.0005 13.16595069112600
ONEWEB-0558             
1 56059U 23043P   25180.84877398  .00000008  00000+0 -12769-4 0  9994
2 56059  87.9271 314.2636 0002384  97.4663 262.6742 13.21827579111690
ONEWEB-0559             
1 56060U 23043Q   25180.83774458 -.00000009  00000+0 -52483-4 0  9997
2 56060  87.9269 314.2579 0002227 106.4525 253.6854 13.21824661111704
ONEWEB-0566             
1 56061U 23043R   25180.83145654  .00001615  00000+0  38775-2 0  9996
2 56061  87.9272 314.2584 0002192 101.5363 258.6017 13.21819849111687
